0 COSMOS 2251 DEB
1 37340U 93036BLG 13281.26980846  .00000237  00000-0  95541-4 0  2405
2 37340 074.0288 149.9997 0020380 238.0119 121.9121 14.33266863203704
0 COSMOS 2251 DEB
1 37340U 93036BLG 13283.99195584  .00000243  00000-0  97633-4 0  2416
2 37340 074.0294 145.0243 0020521 232.1927 127.7411 14.33268505204095
0 COSMOS 2251 DEB
1 37340U 93036BLG 13286.92349666  .00000250  00000-0  10016-3 0  2422
2 37340 074.0282 139.6621 0020513 226.9485 132.9994 14.33270277204512
0 COSMOS 2251 DEB
1 37340U 93036BLG 13290.20402643  .00000255  00000-0  10214-3 0  2439
2 37340 074.0279 133.6633 0020591 219.7549 140.2158 14.33272301204987
0 COSMOS 2251 DEB
1 37340U 93036BLG 13292.22817828  .00000271  00000-0  10782-3 0  2447
2 37340 074.0252 129.9587 0020347 216.8512 143.1260 14.33273899205273
0 COSMOS 2251 DEB
1 37340U 93036BLG 13294.88051443  .00000290  00000-0  11484-3 0  2456
2 37340 074.0244 125.1084 0020199 212.3716 147.6245 14.33276048205659
